[{"OBJECT_NAME":"ONEWEB-0399","OBJECT_ID":"2021-132L","EPOCH":"2025-10-27T06:19:28.141824","MEAN_MOTION":13.11419437,"ECCENTRICITY":0.00011497,"INCLINATION":87.8836,"RA_OF_ASC_NODE":67.4499,"ARG_OF_PERICENTER":87.5792,"MEAN_ANOMALY":272.5468,"EPHEMERIS_TYPE":0,"CLASSIFICATION_TYPE":"U","NORAD_CAT_ID":50479,"ELEMENT_SET_NO":999,"REV_AT_EPOCH":18507,"BSTAR":0.0013255854,"MEAN_MOTION_DOT":4.83e-6,"MEAN_MOTION_DDOT":0},{"OBJECT_NAME":"ONEWEB-0400","OBJECT_ID":"2021-132M","EPOCH":"2025-10-27T05:16:19.011936","MEAN_MOTION":13.18686343,"ECCENTRICITY":0.00019695,"INCLINATION":87.9228,"RA_OF_ASC_NODE":21.7083,"ARG_OF_PERICENTER":98.8597,"MEAN_ANOMALY":261.2758,"EPHEMERIS_TYPE":0,"CLASSIFICATION_TYPE":"U","NORAD_CAT_ID":50480,"ELEMENT_SET_NO":999,"REV_AT_EPOCH":19090,"BSTAR":1.7866676e-5,"MEAN_MOTION_DOT":2.0e-7,"MEAN_MOTION_DDOT":0},{"OBJECT_NAME":"ONEWEB-0401","OBJECT_ID":"2021-132N","EPOCH":"2025-10-27T06:20:27.673152","MEAN_MOTION":13.18685327,"ECCENTRICITY":0.00017193,"INCLINATION":87.9225,"RA_OF_ASC_NODE":21.6967,"ARG_OF_PERICENTER":107.2044,"MEAN_ANOMALY":252.9277,"EPHEMERIS_TYPE":0,"CLASSIFICATION_TYPE":"U","NORAD_CAT_ID":50481,"ELEMENT_SET_NO":999,"REV_AT_EPOCH":19091,"BSTAR":4.1403674e-5,"MEAN_MOTION_DOT":2.9e-7,"MEAN_MOTION_DDOT":0},{"OBJECT_NAME":"ONEWEB-0402","OBJECT_ID":"2021-132P","EPOCH":"2025-10-27T05:28:11.770464","MEAN_MOTION":13.18685909,"ECCENTRICITY":0.00016524,"INCLINATION":87.9227,"RA_OF_ASC_NODE":21.6966,"ARG_OF_PERICENTER":122.4081,"MEAN_ANOMALY":237.7211,"EPHEMERIS_TYPE":0,"CLASSIFICATION_TYPE":"U","NORAD_CAT_ID":50482,"ELEMENT_SET_NO":999,"REV_AT_EPOCH":19093,"BSTAR":7.1720648e-5,"MEAN_MOTION_DOT":4.1e-7,"MEAN_MOTION_DDOT":0},{"OBJECT_NAME":"ONEWEB-0403","OBJECT_ID":"2021-132Q","EPOCH":"2025-10-27T06:03:49.374720","MEAN_MOTION":13.1868577,"ECCENTRICITY":0.00017529,"INCLINATION":87.9232,"RA_OF_ASC_NODE":21.7121,"ARG_OF_PERICENTER":97.7966,"MEAN_ANOMALY":262.3366,"EPHEMERIS_TYPE":0,"CLASSIFICATION_TYPE":"U","NORAD_CAT_ID":50483,"ELEMENT_SET_NO":999,"REV_AT_EPOCH":19089,"BSTAR":0.00019866577,"MEAN_MOTION_DOT":9.1e-7,"MEAN_MOTION_DDOT":0},{"OBJECT_NAME":"ONEWEB-0404","OBJECT_ID":"2021-132R","EPOCH":"2025-10-27T02:12:52.919424","MEAN_MOTION":13.11418514,"ECCENTRICITY":0.00014193,"INCLINATION":87.884,"RA_OF_ASC_NODE":67.4922,"ARG_OF_PERICENTER":85.9004,"MEAN_ANOMALY":274.2287,"EPHEMERIS_TYPE":0,"CLASSIFICATION_TYPE":"U","NORAD_CAT_ID":50484,"ELEMENT_SET_NO":999,"REV_AT_EPOCH":18514,"BSTAR":-0.00069460483,"MEAN_MOTION_DOT":-2.33e-6,"MEAN_MOTION_DDOT":0},{"OBJECT_NAME":"ONEWEB-0405","OBJECT_ID":"2021-132S","EPOCH":"2025-10-27T06:25:12.031968","MEAN_MOTION":13.18685497,"ECCENTRICITY":0.00015941,"INCLINATION":87.9226,"RA_OF_ASC_NODE":21.6933,"ARG_OF_PERICENTER":108.3956,"MEAN_ANOMALY":251.7349,"EPHEMERIS_TYPE":0,"CLASSIFICATION_TYPE":"U","NORAD_CAT_ID":50485,"ELEMENT_SET_NO":999,"REV_AT_EPOCH":19129,"BSTAR":0.00020598421,"MEAN_MOTION_DOT":9.4e-7,"MEAN_MOTION_DDOT":0},{"OBJECT_NAME":"ONEWEB-0406","OBJECT_ID":"2021-132T","EPOCH":"2025-10-27T06:10:57.559296","MEAN_MOTION":13.18686292,"ECCENTRICITY":0.00018732,"INCLINATION":87.923,"RA_OF_ASC_NODE":21.7196,"ARG_OF_PERICENTER":84.913,"MEAN_ANOMALY":275.2216,"EPHEMERIS_TYPE":0,"CLASSIFICATION_TYPE":"U","NORAD_CAT_ID":50486,"ELEMENT_SET_NO":999,"REV_AT_EPOCH":19092,"BSTAR":0.000230446,"MEAN_MOTION_DOT":1.04e-6,"MEAN_MOTION_DDOT":0},{"OBJECT_NAME":"ONEWEB-0407","OBJECT_ID":"2021-132U","EPOCH":"2025-10-27T06:01:27.056640","MEAN_MOTION":13.18685369,"ECCENTRICITY":0.00018672,"INCLINATION":87.9228,"RA_OF_ASC_NODE":21.705,"ARG_OF_PERICENTER":106.2074,"MEAN_ANOMALY":253.9264,"EPHEMERIS_TYPE":0,"CLASSIFICATION_TYPE":"U","NORAD_CAT_ID":50487,"ELEMENT_SET_NO":999,"REV_AT_EPOCH":19086,"BSTAR":0.00020401176,"MEAN_MOTION_DOT":9.3e-7,"MEAN_MOTION_DDOT":0},{"OBJECT_NAME":"ONEWEB-0409","OBJECT_ID":"2021-132V","EPOCH":"2025-10-26T20:40:49.926144","MEAN_MOTION":13.11419236,"ECCENTRICITY":0.00016269,"INCLINATION":87.8853,"RA_OF_ASC_NODE":67.5007,"ARG_OF_PERICENTER":87.9302,"MEAN_ANOMALY":272.2012,"EPHEMERIS_TYPE":0,"CLASSIFICATION_TYPE":"U","NORAD_CAT_ID":50488,"ELEMENT_SET_NO":999,"REV_AT_EPOCH":18500,"BSTAR":-0.00060601826,"MEAN_MOTION_DOT":-2.02e-6,"MEAN_MOTION_DDOT":0},{"OBJECT_NAME":"ONEWEB-0412","OBJECT_ID":"2021-132W","EPOCH":"2025-10-27T05:44:48.213024","MEAN_MOTION":13.18685644,"ECCENTRICITY":0.00016115,"INCLINATION":87.923,"RA_OF_ASC_NODE":21.72,"ARG_OF_PERICENTER":112.3154,"MEAN_ANOMALY":247.815,"EPHEMERIS_TYPE":0,"CLASSIFICATION_TYPE":"U","NORAD_CAT_ID":50489,"ELEMENT_SET_NO":999,"REV_AT_EPOCH":19095,"BSTAR":0.00015750167,"MEAN_MOTION_DOT":7.5e-7,"MEAN_MOTION_DDOT":0},{"OBJECT_NAME":"ONEWEB-0413","OBJECT_ID":"2021-132X","EPOCH":"2025-10-27T05:51:56.892672","MEAN_MOTION":13.1868607,"ECCENTRICITY":0.000179,"INCLINATION":87.9225,"RA_OF_ASC_NODE":21.7359,"ARG_OF_PERICENTER":112.4337,"MEAN_ANOMALY":247.6985,"EPHEMERIS_TYPE":0,"CLASSIFICATION_TYPE":"U","NORAD_CAT_ID":50490,"ELEMENT_SET_NO":999,"REV_AT_EPOCH":19089,"BSTAR":0.00013838852,"MEAN_MOTION_DOT":6.7e-7,"MEAN_MOTION_DDOT":0},{"OBJECT_NAME":"ONEWEB-0414","OBJECT_ID":"2021-132Y","EPOCH":"2025-10-27T05:30:34.293312","MEAN_MOTION":13.18686812,"ECCENTRICITY":0.0001597,"INCLINATION":87.9231,"RA_OF_ASC_NODE":21.6979,"ARG_OF_PERICENTER":104.396,"MEAN_ANOMALY":255.7349,"EPHEMERIS_TYPE":0,"CLASSIFICATION_TYPE":"U","NORAD_CAT_ID":50491,"ELEMENT_SET_NO":999,"REV_AT_EPOCH":19092,"BSTAR":0.00010937734,"MEAN_MOTION_DOT":5.6e-7,"MEAN_MOTION_DDOT":0},{"OBJECT_NAME":"ONEWEB-0417","OBJECT_ID":"2021-132Z","EPOCH":"2025-10-27T05:42:27.129600","MEAN_MOTION":13.1868634,"ECCENTRICITY":0.00017406,"INCLINATION":87.9231,"RA_OF_ASC_NODE":21.7297,"ARG_OF_PERICENTER":93.1551,"MEAN_ANOMALY":266.978,"EPHEMERIS_TYPE":0,"CLASSIFICATION_TYPE":"U","NORAD_CAT_ID":50492,"ELEMENT_SET_NO":999,"REV_AT_EPOCH":19090,"BSTAR":0.00014746603,"MEAN_MOTION_DOT":7.1e-7,"MEAN_MOTION_DDOT":0},{"OBJECT_NAME":"ONEWEB-0418","OBJECT_ID":"2021-132AA","EPOCH":"2025-10-27T05:56:30.521472","MEAN_MOTION":13.18685808,"ECCENTRICITY":0.00016789,"INCLINATION":87.9231,"RA_OF_ASC_NODE":21.7133,"ARG_OF_PERICENTER":85.3064,"MEAN_ANOMALY":274.826,"EPHEMERIS_TYPE":0,"CLASSIFICATION_TYPE":"U","NORAD_CAT_ID":50493,"ELEMENT_SET_NO":999,"REV_AT_EPOCH":19096,"BSTAR":0.00015630983,"MEAN_MOTION_DOT":7.5e-7,"MEAN_MOTION_DDOT":0},{"OBJECT_NAME":"ONEWEB-0419","OBJECT_ID":"2021-132AB","EPOCH":"2025-10-27T06:22:49.585152","MEAN_MOTION":13.18685995,"ECCENTRICITY":0.00019687,"INCLINATION":87.9227,"RA_OF_ASC_NODE":21.7095,"ARG_OF_PERICENTER":92.942,"MEAN_ANOMALY":267.1938,"EPHEMERIS_TYPE":0,"CLASSIFICATION_TYPE":"U","NORAD_CAT_ID":50494,"ELEMENT_SET_NO":999,"REV_AT_EPOCH":19088,"BSTAR":0.00027071168,"MEAN_MOTION_DOT":1.2e-6,"MEAN_MOTION_DDOT":0},{"OBJECT_NAME":"ONEWEB-0420","OBJECT_ID":"2021-132AC","EPOCH":"2025-10-27T05:32:57.014016","MEAN_MOTION":13.18687356,"ECCENTRICITY":0.00019787,"INCLINATION":87.9232,"RA_OF_ASC_NODE":21.7276,"ARG_OF_PERICENTER":111.1048,"MEAN_ANOMALY":249.0296,"EPHEMERIS_TYPE":0,"CLASSIFICATION_TYPE":"U","NORAD_CAT_ID":50495,"ELEMENT_SET_NO":999,"REV_AT_EPOCH":19087,"BSTAR":0.00026893079,"MEAN_MOTION_DOT":1.19e-6,"MEAN_MOTION_DDOT":0}]
