ONEWEB-0399             
1 50479U 21132L   25300.26352016  .00000483  00000+0  13256-2 0  9992
2 50479  87.8836  67.4499 0001149  87.5792 272.5468 13.11419437185078
ONEWEB-0400             
1 50480U 21132M   25300.21966449  .00000020  00000+0  17867-4 0  9991
2 50480  87.9228  21.7083 0001969  98.8597 261.2758 13.18686343190900
ONEWEB-0401             
1 50481U 21132N   25300.26420918  .00000029  00000+0  41404-4 0  9996
2 50481  87.9225  21.6967 0001719 107.2044 252.9277 13.18685327190918
ONEWEB-0402             
1 50482U 21132P   25300.22791401  .00000041  00000+0  71721-4 0  9990
2 50482  87.9227  21.6966 0001652 122.4081 237.7211 13.18685909190933
ONEWEB-0403             
1 50483U 21132Q   25300.25265480  .00000091  00000+0  19867-3 0  9994
2 50483  87.9232  21.7121 0001752  97.7966 262.3366 13.18685770190897
ONEWEB-0404             
1 50484U 21132R   25300.09227916 -.00000233  00000+0 -69460-3 0  9993
2 50484  87.8840  67.4922 0001419  85.9004 274.2287 13.11418514185149
ONEWEB-0405             
1 50485U 21132S   25300.26750037  .00000094  00000+0  20598-3 0  9990
2 50485  87.9226  21.6933 0001594 108.3956 251.7349 13.18685497191298
ONEWEB-0406             
1 50486U 21132T   25300.25761064  .00000104  00000+0  23045-3 0  9994
2 50486  87.9230  21.7196 0001873  84.9130 275.2216 13.18686292190926
ONEWEB-0407             
1 50487U 21132U   25300.25100760  .00000093  00000+0  20401-3 0  9995
2 50487  87.9228  21.7050 0001867 106.2074 253.9264 13.18685369190864
ONEWEB-0409             
1 50488U 21132V   25299.86168896 -.00000202  00000+0 -60602-3 0  9995
2 50488  87.8853  67.5007 0001626  87.9302 272.2012 13.11419236185006
ONEWEB-0412             
1 50489U 21132W   25300.23944691  .00000075  00000+0  15750-3 0  9995
2 50489  87.9230  21.7200 0001611 112.3154 247.8150 13.18685644190952
ONEWEB-0413             
1 50490U 21132X   25300.24440848  .00000067  00000+0  13839-3 0  9990
2 50490  87.9225  21.7359 0001790 112.4337 247.6985 13.18686070190896
ONEWEB-0414             
1 50491U 21132Y   25300.22956358  .00000056  00000+0  10938-3 0  9992
2 50491  87.9231  21.6979 0001597 104.3960 255.7349 13.18686812190920
ONEWEB-0417             
1 50492U 21132Z   25300.23781400  .00000071  00000+0  14747-3 0  9997
2 50492  87.9231  21.7297 0001740  93.1551 266.9780 13.18686340190903
ONEWEB-0418             
1 50493U 21132AA  25300.24757548  .00000075  00000+0  15631-3 0  9992
2 50493  87.9231  21.7133 0001678  85.3064 274.8260 13.18685808190960
ONEWEB-0419             
1 50494U 21132AB  25300.26585168  .00000120  00000+0  27071-3 0  9994
2 50494  87.9227  21.7095 0001968  92.9420 267.1938 13.18685995190880
ONEWEB-0420             
1 50495U 21132AC  25300.23121544  .00000119  00000+0  26893-3 0  9995
2 50495  87.9232  21.7276 0001978 111.1048 249.0296 13.18687356190877
